{
  "norad_id": 57998,
  "name": "STARLINK-30531",
  "history": [
    {
      "epoch": "2026-05-02T08:16:49.827360Z",
      "apogee_km": 484.10076050130647,
      "perigee_km": 481.982028613068,
      "latitude_deg": -2.7130152864756822e-05,
      "longitude_deg": 139.44576052354654,
      "height_km": 482.7222445142071,
      "semi_major_axis_km": 6861.178394557187,
      "eccentricity": 0.0001544,
      "inclination_deg": 43.0011,
      "raan_deg": 123.9178,
      "arg_perigee_deg": 275.2049,
      "mean_anomaly_deg": 84.8626,
      "mean_motion_rev_day": 15.27582572
    },
    {
      "epoch": "2026-05-03T10:57:28.685664Z",
      "apogee_km": 484.1354706178681,
      "perigee_km": 481.91451248120393,
      "latitude_deg": 2.838413343601009e-05,
      "longitude_deg": 91.91070291212799,
      "height_km": 482.72410106682213,
      "semi_major_axis_km": 6861.161991549536,
      "eccentricity": 0.00016185,
      "inclination_deg": 43.0008,
      "raan_deg": 117.6402,
      "arg_perigee_deg": 274.0207,
      "mean_anomaly_deg": 86.046,
      "mean_motion_rev_day": 15.2758805
    },
    {
      "epoch": "2026-05-04T10:29:49.932672Z",
      "apogee_km": 484.0017087477736,
      "perigee_km": 482.1346375960493,
      "latitude_deg": 1.569582622760189e-05,
      "longitude_deg": 92.31683494274706,
      "height_km": 482.87235408374715,
      "semi_major_axis_km": 6861.205173171911,
      "eccentricity": 0.00013606,
      "inclination_deg": 43.0012,
      "raan_deg": 112.1016,
      "arg_perigee_deg": 268.3191,
      "mean_anomaly_deg": 91.7505,
      "mean_motion_rev_day": 15.27573629
    },
    {
      "epoch": "2026-05-05T10:02:09.849120Z",
      "apogee_km": 484.25379796282687,
      "perigee_km": 481.7714340317589,
      "latitude_deg": 3.7942900642852103e-05,
      "longitude_deg": 92.72836298021817,
      "height_km": 482.83079401337585,
      "semi_major_axis_km": 6861.149615997293,
      "eccentricity": 0.0001809,
      "inclination_deg": 43.0014,
      "raan_deg": 106.5628,
      "arg_perigee_deg": 268.1068,
      "mean_anomaly_deg": 91.9577,
      "mean_motion_rev_day": 15.27592183
    },
    {
      "epoch": "2026-05-06T09:34:31.881504Z",
      "apogee_km": 483.9556209346274,
      "perigee_km": 482.192289719108,
      "latitude_deg": -4.5464743879489166e-06,
      "longitude_deg": 93.13328130345064,
      "height_km": 482.28143703693087,
      "semi_major_axis_km": 6861.210955326867,
      "eccentricity": 0.0001285,
      "inclination_deg": 43.0024,
      "raan_deg": 101.0263,
      "arg_perigee_deg": 310.2113,
      "mean_anomaly_deg": 49.8626,
      "mean_motion_rev_day": 15.27571698
    },
    {
      "epoch": "2026-05-07T09:06:51.969888Z",
      "apogee_km": 484.13895818635774,
      "perigee_km": 481.9447531883088,
      "latitude_deg": 4.0534079786419166e-05,
      "longitude_deg": 93.541415344735,
      "height_km": 482.8155313756379,
      "semi_major_axis_km": 6861.1788556873325,
      "eccentricity": 0.0001599,
      "inclination_deg": 43.0028,
      "raan_deg": 95.4848,
      "arg_perigee_deg": 270.1826,
      "mean_anomaly_deg": 89.8843,
      "mean_motion_rev_day": 15.27582418
    },
    {
      "epoch": "2026-05-08T08:39:13.316256Z",
      "apogee_km": 483.969516913171,
      "perigee_km": 482.166392251107,
      "latitude_deg": 5.610114163829508e-07,
      "longitude_deg": 93.94770318408135,
      "height_km": 482.74461312282267,
      "semi_major_axis_km": 6861.204954582139,
      "eccentricity": 0.0001314,
      "inclination_deg": 43.0035,
      "raan_deg": 89.9468,
      "arg_perigee_deg": 276.3919,
      "mean_anomaly_deg": 83.6783,
      "mean_motion_rev_day": 15.27573702
    },
    {
      "epoch": "2026-05-09T08:11:34.190016Z",
      "apogee_km": 484.08881209530136,
      "perigee_km": 482.03319717311297,
      "latitude_deg": 6.072625389902898e-06,
      "longitude_deg": 94.3561148028637,
      "height_km": 482.6487291354765,
      "semi_major_axis_km": 6861.198004634207,
      "eccentricity": 0.0001498,
      "inclination_deg": 43.0043,
      "raan_deg": 84.4089,
      "arg_perigee_deg": 280.627,
      "mean_anomaly_deg": 79.4413,
      "mean_motion_rev_day": 15.27576023
    },
    {
      "epoch": "2026-05-10T03:01:26.670432Z",
      "apogee_km": 484.15982525405525,
      "perigee_km": 481.9605371095995,
      "latitude_deg": -3.243034234402639e-05,
      "longitude_deg": 166.68333219084204,
      "height_km": 482.62384022404876,
      "semi_major_axis_km": 6861.197181181827,
      "eccentricity": 0.00016027,
      "inclination_deg": 43.0046,
      "raan_deg": 79.9782,
      "arg_perigee_deg": 281.2075,
      "mean_anomaly_deg": 78.8596,
      "mean_motion_rev_day": 15.27576298
    },
    {
      "epoch": "2026-05-11T02:33:47.427552Z",
      "apogee_km": 484.1228426930775,
      "perigee_km": 481.99257895925984,
      "latitude_deg": 1.88128891086565e-06,
      "longitude_deg": 167.09216342634045,
      "height_km": 482.60379525278523,
      "semi_major_axis_km": 6861.194710826168,
      "eccentricity": 0.00015524,
      "inclination_deg": 43.0045,
      "raan_deg": 74.4402,
      "arg_perigee_deg": 282.5391,
      "mean_anomaly_deg": 77.5287,
      "mean_motion_rev_day": 15.27577123
    },
    {
      "epoch": "2026-05-12T13:05:15.170208Z",
      "apogee_km": 483.8919339301128,
      "perigee_km": 482.4496870283492,
      "latitude_deg": 4.5076735834384744e-05,
      "longitude_deg": -0.31505035510735263,
      "height_km": 482.9148789729504,
      "semi_major_axis_km": 6861.30781047923,
      "eccentricity": 0.0001051,
      "inclination_deg": 43.005,
      "raan_deg": 66.3164,
      "arg_perigee_deg": 272.6146,
      "mean_anomaly_deg": 87.4586,
      "mean_motion_rev_day": 15.27539353
    },
    {
      "epoch": "2026-05-13T01:38:29.207904Z",
      "apogee_km": 484.0573895279704,
      "perigee_km": 482.0716205883764,
      "latitude_deg": 8.908759914130825e-07,
      "longitude_deg": 167.90684208270363,
      "height_km": 482.8006881418843,
      "semi_major_axis_km": 6861.201505058173,
      "eccentricity": 0.00014471,
      "inclination_deg": 43.0053,
      "raan_deg": 63.3624,
      "arg_perigee_deg": 272.3755,
      "mean_anomaly_deg": 87.6931,
      "mean_motion_rev_day": 15.27574854
    },
    {
      "epoch": "2026-05-13T23:36:40.510080Z",
      "apogee_km": 484.0515633685209,
      "perigee_km": 482.0620916063035,
      "latitude_deg": -2.6356428659919182e-05,
      "longitude_deg": -167.71004664703696,
      "height_km": 482.7330968906124,
      "semi_major_axis_km": 6861.193827487412,
      "eccentricity": 0.00014498,
      "inclination_deg": 43.0053,
      "raan_deg": 58.1949,
      "arg_perigee_deg": 275.8319,
      "mean_anomaly_deg": 84.2367,
      "mean_motion_rev_day": 15.27577418
    },
    {
      "epoch": "2026-05-15T00:43:10.609824Z",
      "apogee_km": 484.2223635005048,
      "perigee_km": 481.8933995099269,
      "latitude_deg": 2.289053226558658e-05,
      "longitude_deg": 168.71652670320694,
      "height_km": 483.4204982864339,
      "semi_major_axis_km": 6861.194881505216,
      "eccentricity": 0.00016972,
      "inclination_deg": 43.0056,
      "raan_deg": 52.278,
      "arg_perigee_deg": 239.8249,
      "mean_anomaly_deg": 120.2435,
      "mean_motion_rev_day": 15.27577066
    }
  ]
}